GLOBALSTAR M045 [-]     
1 25676U 99019A   23251.04197187 -.00000089  00000+0  38838-4 0  9995
2 25676  52.0002 352.5474 0000775  53.2914 118.9763 12.27014628114060
GLOBALSTAR M044 [-]     
1 25678U 99019C   23251.10303375 -.00000126  00000+0 -59256-3 0  9991
2 25678  51.9978 307.4432 0006321 227.1022 146.5883 11.90222500 94134
GLOBALSTAR M025 [-]     
1 25770U 99031A   23250.24033753 -.00000044  00000+0  73273-3 0  9995
2 25770  51.9783 222.5898 0001024 123.3605 249.2544 11.22544421408838
GLOBALSTAR M049 [-]     
1 25771U 99031B   23250.30848099 -.00000066  00000+0 -16617-4 0  9995
2 25771  51.9838 224.5846 0002882 356.7102   3.3675 11.12095909 45238
GLOBALSTAR M047 [-]     
1 25772U 99031C   23250.52627085 -.00000052  00000+0  48192-3 0  9996
2 25772  51.9822 283.0347 0016356 228.8051 131.1345 11.31915101397657
GLOBALSTAR M052 [-]     
1 25773U 99031D   23250.66936490 -.00000077  00000+0 -38532-3 0  9990
2 25773  51.9906 341.5596 0002739 168.4420 341.4926 11.15045058406161
